TIANQI-15               
1 49027U 21065B   26068.81163741  .00006722  00000+0  41179-3 0  9990
2 49027  34.9979 108.2420 0007067 250.7766 109.2180 15.09508085254244
STARLINK-5097           
1 53995U 22125AH  26068.69308023 -.00001379  00000+0 -68599-4 0  9998
2 53995  53.2175 214.0638 0001141  95.0305 265.0817 15.08825907189450
