[{"OBJECT_NAME":"TIANQI-15","OBJECT_ID":"2021-065B","EPOCH":"2026-03-09T19:28:45.472224","MEAN_MOTION":15.09508085,"ECCENTRICITY":0.00070671,"INCLINATION":34.9979,"RA_OF_ASC_NODE":108.242,"ARG_OF_PERICENTER":250.7766,"MEAN_ANOMALY":109.218,"EPHEMERIS_TYPE":0,"CLASSIFICATION_TYPE":"U","NORAD_CAT_ID":49027,"ELEMENT_SET_NO":999,"REV_AT_EPOCH":25424,"BSTAR":0.00041179088,"MEAN_MOTION_DOT":6.722e-5,"MEAN_MOTION_DDOT":0},{"OBJECT_NAME":"STARLINK-5097","OBJECT_ID":"2022-125AH","EPOCH":"2026-03-09T16:38:02.132736","MEAN_MOTION":15.08825907,"ECCENTRICITY":0.00011408,"INCLINATION":53.2175,"RA_OF_ASC_NODE":214.0638,"ARG_OF_PERICENTER":95.0305,"MEAN_ANOMALY":265.0817,"EPHEMERIS_TYPE":0,"CLASSIFICATION_TYPE":"U","NORAD_CAT_ID":53995,"ELEMENT_SET_NO":999,"REV_AT_EPOCH":18945,"BSTAR":-6.8599483e-5,"MEAN_MOTION_DOT":-1.379e-5,"MEAN_MOTION_DDOT":0}]
